1 27424U 02022A   12057.43893948  .00000399  00000-0  98604-4 0  2230
2 27424 098.2249 359.5387 0001319 081.9567 278.1772 14.57110486522094